# From MPC 82723
273P/Pons-Gambart,e,136.7654,320.3996,20.3261,31.92013,0.0054652,0.97422549,0.0000,12/19.9527/2012,2000,g 11.5,4.0
# From MPEC 2022-H30
274P/Tombaugh-Tenagra,e,15.8157,81.3397,38.4695,4.375529,0.1076858,0.43934402,1.7804,04/25.0/2022,2000,g 13.0,4.0
# From MPC 81862
275P/Hermann,e,21.2757,348.7576,174.0109,5.775401,0.0710119,0.71260146,242.7659,04/25.0/2022,2000,g 17.0,4.0
# From MPEC 2020-K19
276P/Vorobjov,e,14.8101,211.3653,199.5699,5.322023,0.0802766,0.26757200,282.6301,04/25.0/2022,2000,g 11.5,4.0
# From MPEC 2021-F20
277P/LINEAR,e,16.7768,276.3299,152.3177,3.853475,0.1302942,0.50591697,62.6439,04/25.0/2022,2000,g 15.1,4.0
# From MPEC 2021-S45
278P/McNaught,e,6.6958,15.3819,237.8221,3.688470,0.1391345,0.43601409,82.1376,04/25.0/2022,2000,g 14.0,4.0
# From MPC100285
279P/La Sagra,e,5.0525,346.2331,5.8438,3.573002,0.1459332,0.39869007,307.5259,04/25.0/2022,2000,g 14.0,4.0
# From MPC 89013
280P/Larsen,e,11.7740,131.3933,104.7576,4.530041,0.1022235,0.41735713,312.2891,04/25.0/2022,2000,g 12.5,4.0
# From MPEC 2021-W31
281P/MOSS,e,4.7189,87.1805,26.6701,4.874603,0.0915789,0.17234560,334.1085,04/25.0/2022,2000,g 11.0,4.0
# From MPC133426
282P/,e,5.8117,9.2975,217.6324,4.239732,0.1129006,0.18838509,20.5886,04/25.0/2022,2000,g 13.5,2.0
# From MPEC 2021-BE3
283P/Spacewatch,e,14.4552,161.1292,22.2375,4.137306,0.1171191,0.48465057,26.8228,04/25.0/2022,2000,g 16.0,2.0
# From MPEC 2022-D36
284P/McNaught,e,11.8613,144.2614,202.4115,3.676178,0.1398329,0.37554154,31.3812,04/25.0/2022,2000,g 13.0,4.0
# From MPC 85339
285P/LINEAR,e,25.0383,185.5074,178.4381,4.507639,0.1029865,0.61857496,332.9775,04/25.0/2022,2000,g 15.0,4.0
# From MPEC 2021-O56
286P/Christensen,e,17.0444,283.9564,24.8576,4.110192,0.1182799,0.42557357,357.9129,04/25.0/2022,2000,g 14.0,4.0
# From MPC 96868
287P/Christensen,e,16.3200,139.0422,189.0490,4.163409,0.1160194,0.27104534,309.4605,04/25.0/2022,2000,g 13.5,4.0
# From MPC133426
288P/,e,3.2380,83.1303,280.2562,3.049975,0.1850374,0.20099130,10.0116,04/25.0/2022,2000,g 16.0,2.0
# From MPEC 2021-S45
289P/Blanpain,e,5.8968,68.8827,9.8455,3.046101,0.1853905,0.68569410,158.6930,04/25.0/2022,2000,g 19.0,4.0
# From MPC 95214
290P/Jager,e,20.0697,302.6812,181.8862,6.214866,0.0636145,0.62765490,191.5019,04/25.0/2022,2000,g 10.5,4.0
# From MPEC 2021-N06
291P/NEAT,e,6.2984,237.8398,173.6071,4.538576,0.1019353,0.43561252,321.7823,04/25.0/2022,2000,g 13.0,4.0
# From MPC115887
292P/Li,e,24.2762,90.9506,319.4839,6.104414,0.0653489,0.58905023,196.3427,04/25.0/2022,2000,g 12.5,4.0
# From MPEC 2021-S45
293P/Spacewatch,e,9.0576,78.3998,41.0014,3.642298,0.1417884,0.41824426,69.7418,04/25.0/2022,2000,g 14.5,4.0
# From MPEC 2020-SI8
294P/LINEAR,e,18.0632,312.1682,235.4740,3.190838,0.1729207,0.60137767,151.1189,04/25.0/2022,2000,g 15.5,4.0
# From MPC 93589
295P/LINEAR,e,21.0741,7.4380,72.8740,5.305973,0.0806411,0.61659698,234.9274,04/25.0/2022,2000,g 12.0,4.0
# From MPEC 2021-N06
296P/Garradd,e,25.2340,263.5792,350.0425,3.494023,0.1509091,0.47873387,88.1803,04/25.0/2022,2000,g 14.0,4.0
# From MPC102956
297P/Beshore,e,10.3140,97.5792,132.8920,3.450599,0.1537667,0.32022725,70.1189,04/25.0/2022,2000,g 15.0,4.0
# From MPC114609
298P/Christensen,e,7.8708,52.8218,100.6567,3.590761,0.1448519,0.38637557,86.3099,04/25.0/2022,2000,g 15.0,4.0
# From MPEC 2022-CN4
299P/Catalina-PANSTARRS,e,10.4702,271.6180,323.8271,4.386824,0.1072701,0.28108291,280.9388,04/25.0/2022,2000,g 11.5,4.0
# From MPEC 2022-ED3
300P/Catalina,e,5.6740,95.6373,222.9269,2.699547,0.2222121,0.69175749,281.9854,04/25.0/2022,2000,g 16.0,4.0
# From MPC 89014
301P/LINEAR-NEAT,e,10.3398,351.1749,193.6312,5.739601,0.0716773,0.58520302,200.7324,04/25.0/2022,2000,g 13.0,4.0
# From MPEC 2020-HN5
302P/Lemmon-PANSTARRS,e,6.0337,121.7463,208.3658,4.274605,0.1115219,0.23030424,243.1386,04/25.0/2022,2000,g 12.5,4.0
# From MPC 92278
303P/NEAT,e,7.0216,347.9720,356.9350,5.045452,0.0869669,0.51089803,238.6059,04/25.0/2022,2000,g 13.5,4.0
# From MPEC 2020-N08
304P/Ory,e,2.6070,58.9163,335.2452,3.150676,0.1762376,0.60075632,109.3450,04/25.0/2022,2000,g 16.5,4.0
# From MPC101100
305P/Skiff,e,11.6602,240.1040,147.3302,4.642141,0.0985432,0.69374041,267.6466,04/25.0/2022,2000,g 18.0,4.0
# From MPC 92278
306P/LINEAR,e,8.3112,341.3733,0.8669,3.123749,0.1785213,0.59329508,146.9089,04/25.0/2022,2000,g 19.0,4.0
# From MPC 92278
307P/LINEAR,e,4.4355,158.1669,222.1342,5.790931,0.0707264,0.67526777,189.5161,04/25.0/2022,2000,g 15.0,4.0
# From MPEC 2022-C56
308P/Lagerkvist-Carsenty,e,4.8528,63.0569,333.6121,6.601296,0.0581113,0.36414182,147.7983,04/25.0/2022,2000,g 13.0,2.0
# From MPC 94284
309P/LINEAR,e,17.0237,10.1465,49.9381,4.372510,0.1077973,0.61796711,284.0821,04/25.0/2022,2000,g 15.0,4.0
# From MPC 98566
310P/Hill,e,13.1278,8.9218,31.7836,4.180074,0.1153262,0.42212281,296.8783,04/25.0/2022,2000,g 13.5,4.0
# From MPEC 2021-BE3
311P/PANSTARRS,e,4.9697,279.2147,144.5276,2.188414,0.3044457,0.11572445,171.8973,04/25.0/2022,2000,g 17.0,4.0
# From MPEC 2021-BE3
312P/NEAT,e,19.7677,144.6701,207.6058,3.468307,0.1525906,0.42786951,88.0219,04/25.0/2022,2000,g 16.0,4.0
# From MPEC 2021-S45
313P/Gibbs,e,10.9806,105.9691,254.7805,3.163562,0.1751619,0.23503435,129.4780,04/25.0/2022,2000,g 15.0,4.0
# From MPC105243
314P/Montani,e,3.9828,267.6072,214.0151,7.262880,0.0503548,0.41625588,102.0034,04/25.0/2022,2000,g  9.5,4.0
# From MPEC 2021-N06
315P/LONEOS,e,17.7418,68.8232,65.7300,4.940002,0.0897663,0.52096293,177.3783,04/25.0/2022,2000,g 11.0,4.0
# From MPC 92279
316P/LONEOS-Christensen,e,9.8269,246.4437,192.5543,4.373540,0.1077592,0.15603373,259.2925,04/25.0/2022,2000,g 13.5,4.0
# From MPEC 2020-C98
317P/WISE,e,11.9513,275.4919,334.8570,2.963030,0.1932413,0.57050198,111.2934,04/25.0/2022,2000,g 17.5,4.0
# From MPC102103
318P/McNaught-Hartley,e,17.8842,35.5352,313.2617,7.501426,0.0479721,0.67528954,113.8492,04/25.0/2022,2000,g  8.5,6.0
# From MPC 97499
319P/Catalina-McNaught,e,15.0947,111.3697,203.6776,3.567036,0.1462995,0.66667661,3.5943,04/25.0/2022,2000,g 15.0,4.0
# From MPC 96281
320P/McNaught,e,4.9080,295.9369,0.7820,3.093748,0.1811243,0.68554306,83.8452,04/25.0/2022,2000,g 20.5,4.0
# From MPC105243
321P/SOHO,e,20.0926,165.0172,172.7485,2.423437,0.2612501,0.98111144,0.0000,10/26.5118/2023,2000,g 20.0,4.0
# From MPC102103
322P/SOHO,e,11.4681,351.5300,56.8723,2.507864,0.2481694,0.97991050,0.0000,08/21.0852/2023,2000,g 19.0,4.0
# From MPEC 2016-Y36
323P/SOHO,e,5.3341,324.3855,353.0511,2.583057,0.2374122,0.98481864,0.0000,01/17.7990/2021,2000,g 20.0,4.0
# From MPEC 2021-W31
324P/LaSagra,e,21.4042,270.5852,57.5372,3.094562,0.1810528,0.15389163,64.2332,04/25.0/2022,2000,g 13.0,4.0
# From MPEC 2022-H30
325P/Yang-Gao,e,16.6944,257.5597,343.7032,3.522789,0.1490645,0.59338407,3.9965,04/25.0/2022,2000,g 14.0,4.0
# From MPC103849
326P/Hill,e,2.4710,99.8089,278.6282,4.062718,0.1203591,0.31807180,286.0332,04/25.0/2022,2000,g 13.5,4.0
# From MPC 97499
327P/Van Ness,e,36.2512,173.9849,185.0461,3.562453,0.1465819,0.56321606,340.8808,04/25.0/2022,2000,g 16.0,4.0
# From MPC109148
328P/LONEOS-Tucker,e,17.6731,341.6349,30.5260,4.192758,0.1148033,0.55254863,265.2976,04/25.0/2022,2000,g 14.5,4.0
# From MPC101101
329P/LINEAR-Catalina,e,21.6882,87.6633,343.5302,5.189767,0.0833647,0.67769588,194.8858,04/25.0/2022,2000,g 13.5,4.0
# From MPC105243
330P/Catalina,e,15.7002,293.0890,188.8970,6.625144,0.0577978,0.54844574,119.5542,04/25.0/2022,2000,g 12.0,4.0
# From MPEC 2022-C56
331P/Gibbs,e,9.7381,216.7593,184.2760,3.005162,0.1891918,0.04114975,107.8029,04/25.0/2022,2000,g 12.0,4.0
# From MPEC 2016-K18
332P/Ikeya-Murakami,e,9.3800,3.7861,152.3253,3.088582,0.1815789,0.48938844,45.3246,04/25.0/2022,2000,g 18.0,4.0
# From MPEC 2016-EI8
332P-B/Ikeya-Murakami,e,9.3805,3.8028,152.3711,3.082329,0.1821317,0.48970701,359.9699,03/17.0/2016,2000,g 19.0,4.0
# From MPEC 2016-K18
332P-C/Ikeya-Murakami,e,9.3791,3.7865,152.3166,3.088548,0.1815819,0.48939390,45.3395,04/25.0/2022,2000,g 16.5,4.0
# From MPEC 2016-ED0
332P-D/Ikeya-Murakami,e,9.3761,3.7923,152.4393,3.081138,0.1822373,0.48977814,359.9486,03/17.0/2016,2000,g 19.0,4.0
# From MPEC 2016-ED0
332P-E/Ikeya-Murakami,e,9.3774,3.8228,152.2825,3.079877,0.1823493,0.48922008,359.9889,03/17.0/2016,2000,g 21.0,4.0
# From MPEC 2016-ED0
332P-F/Ikeya-Murakami,e,9.5293,3.4757,152.8203,3.163214,0.1751908,0.49918860,359.8501,03/17.0/2016,2000,g 21.0,4.0
# From MPEC 2016-ED0
332P-G/Ikeya-Murakami,e,9.2523,3.6955,154.4000,3.050519,0.1849880,0.49200362,359.9006,03/19.0/2016,2000,g 19.0,4.0
# From MPC100285
332P-H/Ikeya-Murakami,e,9.3796,3.7863,152.3173,3.088733,0.1815656,0.48942913,45.2704,04/25.0/2022,2000,g 19.0,4.0
# From MPEC 2016-ED0
332P-I/Ikeya-Murakami,e,9.3791,3.8048,152.3297,3.081767,0.1821815,0.48955490,359.9360,03/17.0/2016,2000,g 20.5,2.0
# From MPEC 2016-EI8
332P-J/Ikeya-Murakami,e,9.4296,3.6729,152.7712,3.115165,0.1792596,0.49429435,359.8613,03/17.0/2016,2000,g 20.5,2.0
# From MPEC 2020-L06
333P/LINEAR,e,131.9922,115.6389,25.9880,4.220410,0.1136769,0.73662635,252.1059,04/25.0/2022,2000,g 15.0,4.0
# From MPC115888
334P/NEAT,e,20.4086,90.6245,90.1183,6.838236,0.0551173,0.35073976,98.3864,04/25.0/2022,2000,g 10.5,4.0
# From MPEC 2021-U31
335P/Gibbs,e,7.2934,330.8467,162.3118,3.577248,0.1456735,0.54606602,344.1191,04/25.0/2022,2000,g 17.0,4.0
# From MPC105244
336P/McNaught,e,17.8306,298.2497,308.7423,5.034596,0.0872483,0.44439881,166.5624,04/25.0/2022,2000,g 13.5,4.0
# From MPEC 2022-H04
337P/WISE,e,15.3710,106.0613,161.0293,3.285857,0.1654745,0.49660812,348.8877,04/25.0/2022,2000,g 17.0,4.0
# From MPC104796
338P/McNaught,e,25.3856,9.7978,4.4429,3.895365,0.1281982,0.41191582,253.4925,04/25.0/2022,2000,g 12.0,4.0
# From MPC101101
339P/Gibbs,e,5.7333,172.7242,27.4879,3.698277,0.1385814,0.63547779,291.6753,04/25.0/2022,2000,g 17.0,4.0
# From MPC133426
340P/Boattini,e,2.0784,291.6934,35.9323,4.250619,0.1124672,0.28085910,222.6720,04/25.0/2022,2000,g 14.3,4.0
# From MPEC 2021-BE3
341P/Gibbs,e,3.7968,29.9694,312.2215,4.291877,0.1108494,0.41571944,238.8456,04/25.0/2022,2000,g 12.5,4.0
